OBJECT_NAME,OBJECT_ID,EPOCH,MEAN_MOTION,ECCENTRICITY,INCLINATION,RA_OF_ASC_NODE,ARG_OF_PERICENTER,MEAN_ANOMALY,EPHEMERIS_TYPE,CLASSIFICATION_TYPE,NORAD_CAT_ID,ELEMENT_SET_NO,REV_AT_EPOCH,BSTAR,MEAN_MOTION_DOT,MEAN_MOTION_DDOT
GSAT-29,2018-089A,2026-06-25T17:59:39.172416,1.00270195,.0003793,0.0861,263.2742,168.4084,167.1461,0,U,43698,999,2787,0,.96E-6,0
ES'HAIL 2,2018-090A,2026-06-25T16:08:40.198272,1.00274106,.0002207,0.0185,341.0996,148.5722,52.1049,0,U,43700,999,2776,0,.155E-5,0
GEO-KOMPSAT-2A,2018-100A,2026-06-25T20:03:12.714048,1.00270592,.0002457,0.0442,157.6311,293.4522,251.9424,0,U,43823,999,2771,0,-.333E-5,0
GSAT-11,2018-100B,2026-06-25T19:47:44.198304,1.00272151,.000817,0.0935,267.3880,184.2115,193.3037,0,U,43824,999,2756,0,-.67E-6,0
GSAT-7A,2018-105A,2026-06-25T18:01:53.956416,1.00273974,.0002255,0.0422,99.1594,335.5179,172.4619,0,U,43864,999,2753,0,.37E-6,0
COSMOS 2533,2018-107A,2026-06-25T18:03:53.764704,1.00272026,.0000358,0.0468,98.4442,41.7968,114.6129,0,U,43867,999,2753,0,-.28E-6,0
TJS-3,2018-110A,2026-06-25T16:45:50.966784,1.00269437,.0002512,2.5668,80.3981,75.3408,157.7569,0,U,43874,999,2750,0,-.209E-5,0
ZHONGXING-2D,2019-001A,2026-06-25T20:03:42.666336,1.00273772,.0001424,0.0319,192.5343,161.1352,351.2398,0,U,43920,999,5416,0,-.326E-5,0
HELLAS-SAT 4 & SGS-1,2019-007A,2026-06-25T12:47:04.696800,1.00272057,.0005388,0.0735,127.7184,11.9312,4.7980,0,U,44034,999,2745,0,.163E-5,0
GSAT-31,2019-007B,2026-06-25T17:57:31.874976,1.00270282,.0000893,0.0473,253.5977,126.9562,210.5683,0,U,44035,999,2705,0,.136E-5,0
NUSANTARA SATU,2019-009A,2026-06-25T04:30:38.874816,1.00270399,.0004693,0.0436,145.2794,332.1124,9.5958,0,U,44048,999,2685,0,-.225E-5,0
ZHONGXING-6C,2019-012A,2026-06-25T20:03:50.153760,1.00274650,.0014891,0.0484,61.8532,349.1357,294.3314,0,U,44067,999,2682,0,-.325E-5,0
WGS 10 (USA 291),2019-014A,2026-06-25T06:02:22.102080,1.00272238,.0000568,0.0190,24.8682,19.8213,19.6021,0,U,44071,999,2669,0,.56E-6,0
TIANLIAN 2-01,2019-017A,2026-06-25T19:48:36.612864,1.00272028,.0001228,0.5625,83.1381,37.6089,167.3722,0,U,44076,999,2673,0,-.96E-6,0
ARABSAT-6A,2019-021A,2026-06-25T19:35:20.653728,1.00269725,.0001089,0.0501,12.2762,349.7461,236.2820,0,U,44186,999,2624,0,.164E-5,0
BEIDOU-3 IGSO-1,2019-023A,2026-06-24T12:59:44.316960,1.00289953,.00257477,58.7053,37.5725,224.9564,323.4804,0,U,44204,999,728,0,-.226E-5,0
BEIDOU-2 G8,2019-027A,2026-06-25T20:07:49.771200,1.00269005,.0009959,1.6806,74.5263,284.6146,1.2791,0,U,44231,999,2616,0,-.239E-5,0
YAMAL 601,2019-031A,2026-06-25T17:57:54.339840,1.00273409,.0002787,0.0272,79.1621,14.3324,138.8697,0,U,44307,999,2601,0,.13E-5,0
AT&T T-16,2019-034A,2026-06-24T08:32:38.551200,1.00269632,.00004225,0.0237,70.4808,236.8286,352.4898,0,U,44333,999,2570,0,-.107E-5,0
EUTELSAT 7C,2019-034B,2026-06-24T07:32:47.014656,1.00271247,.00034416,0.0733,180.0215,252.1066,320.5463,0,U,44334,999,690,0,.56E-6,0
BEIDOU-3 IGSO-2,2019-035A,2026-06-25T16:15:04.743072,1.00264102,.0039503,55.2491,158.7880,216.5820,261.6369,0,U,44337,999,2575,0,-.65E-6,0
COSMOS 2539,2019-048A,2026-06-25T19:30:06.157728,1.00270912,.0000669,0.0368,93.0576,355.0445,130.3785,0,U,44457,999,2531,0,.91E-6,0
EDRS-C,2019-049A,2026-06-25T20:07:12.329760,1.00267385,.0001228,0.0163,30.8652,76.1859,251.1601,0,U,44475,999,2529,0,0,0
INTELSAT 39 (IS-39),2019-049B,2026-06-25T12:53:41.563104,1.00270995,.0000772,0.0262,7.3307,349.0040,172.7126,0,U,44476,999,2521,0,0,0
AMOS-17,2019-050A,2026-06-25T19:31:28.527168,1.00271863,.0002164,0.0283,310.4650,173.0955,100.2404,0,U,44479,999,2527,0,.12E-5,0
AEHF-5 (USA 292),2019-051A,2026-06-25T18:10:17.601024,1.00271896,.0065884,1.4459,336.8760,359.7966,302.8848,0,U,44481,999,2534,0,-.247E-5,0
EUTELSAT 5 WEST B,2019-067A,2026-06-25T17:42:31.027104,1.00271458,.0003398,0.0622,3.3854,90.7742,80.3376,0,U,44624,999,2452,0,-.32E-6,0
MEV-1,2019-067B,2026-06-16T22:18:40.152960,1.00269616,.00027946,0.8740,268.9828,179.8034,307.2103,0,U,44625,999,6174,0,-.149E-5,0
TJS-4,2019-070A,2026-06-25T16:24:56.461248,1.00273446,.0004352,0.0396,86.0572,317.8936,199.6311,0,U,44637,999,2462,0,-.16E-5,0
TIBA-1,2019-080A,2026-06-25T12:46:04.793088,1.00276648,.0002397,0.0501,0.3327,112.2815,28.1180,0,U,44800,999,2414,0,.166E-5,0
INMARSAT GX5,2019-080B,2026-06-25T19:29:51.182016,1.00271831,.0002463,0.0408,24.9444,79.3333,113.1273,0,U,44801,999,687,0,.85E-6,0
JCSAT-18 (KACIFIC 1),2019-091A,2026-06-23T22:28:51.794976,1.00263997,.00007071,0.0365,230.5457,160.8075,7.9439,0,U,44868,999,2407,0,-.196E-5,0
