GSAT-29                 
1 43698U 18089A   26176.74975894  .00000096  00000+0  00000+0 0  9994
2 43698   0.0861 263.2742 0003793 168.4084 167.1461  1.00270195 27871
ES'HAIL 2               
1 43700U 18090A   26176.67268748  .00000155  00000+0  00000+0 0  9991
2 43700   0.0185 341.0996 0002207 148.5722  52.1049  1.00274106 27766
GEO-KOMPSAT-2A          
1 43823U 18100A   26176.83556382 -.00000333  00000+0  00000+0 0  9990
2 43823   0.0442 157.6311 0002457 293.4522 251.9424  1.00270592 27711
GSAT-11                 
1 43824U 18100B   26176.82481711 -.00000067  00000+0  00000+0 0  9997
2 43824   0.0935 267.3880 0008170 184.2115 193.3037  1.00272151 27567
GSAT-7A                 
1 43864U 18105A   26176.75131894  .00000037  00000+0  00000+0 0  9998
2 43864   0.0422  99.1594 0002255 335.5179 172.4619  1.00273974 27539
COSMOS 2533             
1 43867U 18107A   26176.75270561 -.00000028  00000+0  00000+0 0  9999
2 43867   0.0468  98.4442 0000358  41.7968 114.6129  1.00272026 27531
TJS-3                   
1 43874U 18110A   26176.69850656 -.00000209  00000+0  00000+0 0  9994
2 43874   2.5668  80.3981 0002512  75.3408 157.7569  1.00269437 27507
ZHONGXING-2D            
1 43920U 19001A   26176.83591049 -.00000326  00000+0  00000+0 0  9990
2 43920   0.0319 192.5343 0001424 161.1352 351.2398  1.00273772 54166
HELLAS-SAT 4 & SGS-1    
1 44034U 19007A   26176.53269325  .00000163  00000+0  00000+0 0  9997
2 44034   0.0735 127.7184 0005388  11.9312   4.7980  1.00272057 27453
GSAT-31                 
1 44035U 19007B   26176.74828559  .00000136  00000+0  00000+0 0  9991
2 44035   0.0473 253.5977 0000893 126.9562 210.5683  1.00270282 27052
NUSANTARA SATU          
1 44048U 19009A   26176.18794994 -.00000225  00000+0  00000+0 0  9990
2 44048   0.0436 145.2794 0004693 332.1124   9.5958  1.00270399 26853
ZHONGXING-6C            
1 44067U 19012A   26176.83599715 -.00000325  00000+0  00000+0 0  9992
2 44067   0.0484  61.8532 0014891 349.1357 294.3314  1.00274650 26828
WGS 10 (USA 291)        
1 44071U 19014A   26176.25164470  .00000056  00000+0  00000+0 0  9991
2 44071   0.0190  24.8682 0000568  19.8213  19.6021  1.00272238 26698
TIANLIAN 2-01           
1 44076U 19017A   26176.82542376 -.00000096  00000+0  00000+0 0  9992
2 44076   0.5625  83.1381 0001228  37.6089 167.3722  1.00272028 26739
ARABSAT-6A              
1 44186U 19021A   26176.81621127  .00000164  00000+0  00000+0 0  9995
2 44186   0.0501  12.2762 0001089 349.7461 236.2820  1.00269725 26242
BEIDOU-3 IGSO-1         
1 44204U 19023A   26175.54148515 -.00000226  00000+0  00000+0 0  9992
2 44204  58.7053  37.5725 0025747 224.9564 323.4804  1.00289953  7288
BEIDOU-2 G8             
1 44231U 19027A   26176.83877050 -.00000239  00000+0  00000+0 0  9996
2 44231   1.6806  74.5263 0009959 284.6146   1.2791  1.00269005 26165
YAMAL 601               
1 44307U 19031A   26176.74854560  .00000130  00000+0  00000+0 0  9995
2 44307   0.0272  79.1621 0002787  14.3324 138.8697  1.00273409 26015
AT&T T-16               
1 44333U 19034A   26175.35600175 -.00000107  00000+0  00000+0 0  9999
2 44333   0.0237  70.4808 0000422 236.8286 352.4898  1.00269632 25703
EUTELSAT 7C             
1 44334U 19034B   26175.31443304  .00000056  00000+0  00000+0 0  9997
2 44334   0.0733 180.0215 0003441 252.1066 320.5463  1.00271247  6906
BEIDOU-3 IGSO-2         
1 44337U 19035A   26176.67713823 -.00000065  00000+0  00000+0 0  9998
2 44337  55.2491 158.7880 0039503 216.5820 261.6369  1.00264102 25758
COSMOS 2539             
1 44457U 19048A   26176.81257127  .00000091  00000+0  00000+0 0  9999
2 44457   0.0368  93.0576 0000669 355.0445 130.3785  1.00270912 25310
EDRS-C                  
1 44475U 19049A   26176.83833715  .00000000  00000+0  00000+0 0  9995
2 44475   0.0163  30.8652 0001228  76.1859 251.1601  1.00267385 25295
INTELSAT 39 (IS-39)     
1 44476U 19049B   26176.53728661  .00000000  00000+0  00000+0 0  9996
2 44476   0.0262   7.3307 0000772 349.0040 172.7126  1.00270995 25212
AMOS-17                 
1 44479U 19050A   26176.81352462  .00000120  00000+0  00000+0 0  9997
2 44479   0.0283 310.4650 0002164 173.0955 100.2404  1.00271863 25270
AEHF-5 (USA 292)        
1 44481U 19051A   26176.75714816 -.00000247  00000+0  00000+0 0  9990
2 44481   1.4459 336.8760 0065884 359.7966 302.8848  1.00271896 25346
EUTELSAT 5 WEST B       
1 44624U 19067A   26176.73785911 -.00000032  00000+0  00000+0 0  9990
2 44624   0.0622   3.3854 0003398  90.7742  80.3376  1.00271458 24525
MEV-1                   
1 44625U 19067B   26167.92963140 -.00000149  00000+0  00000+0 0  9993
2 44625   0.8740 268.9828 0002794 179.8034 307.2103  1.00269616 61744
TJS-4                   
1 44637U 19070A   26176.68398682 -.00000160  00000+0  00000+0 0  9999
2 44637   0.0396  86.0572 0004352 317.8936 199.6311  1.00273446 24624
TIBA-1                  
1 44800U 19080A   26176.53199992  .00000166  00000+0  00000+0 0  9994
2 44800   0.0501   0.3327 0002397 112.2815  28.1180  1.00276648 24145
INMARSAT GX5            
1 44801U 19080B   26176.81239794  .00000085  00000+0  00000+0 0  9991
2 44801   0.0408  24.9444 0002463  79.3333 113.1273  1.00271831  6873
JCSAT-18 (KACIFIC 1)    
1 44868U 19091A   26174.93671059 -.00000196  00000+0  00000+0 0  9995
2 44868   0.0365 230.5457 0000707 160.8075   7.9439  1.00263997 24075
